#dP2022  5 18  0  0  0.00000000      96 __u+U ITR14 FIT  IAC
## 2210 259200.00000000   900.00000000 59717 0.0000000000000
+  126   C01C02C03C04C05C06C07C08C09C10C11C12C13C14C16C19C20
+        C21C22C23C24C25C26C27C28C29C30C32C33C34C35C36C37C38
+        C39C40C41C42C43C44C45C46C59C60E02E03E04E05E07E08E09
+        E10E11E12E13E14E15E18E19E21E24E25E26E27E30E31E33E34
+        E36G01G02G03G04G05G06G07G08G09G10G11G12G13G14G15G16
+        G17G18G19G20G21G22G23G24G25G26G27G28G29G30G31G32J02
+        J03R01R02R03R04R05R06R07R08R09R10R11R12R13R14R15R17
+        R18R19R20R21R22R23R24  0  0  0  0  0  0  0  0  0  0
++        15 15 14 15 15  9  9  9  9  8  9  9  9  9  9  7  7
++         7  7  7  7  7  7  7  7  7  7  7  7  7  7  7  7  8
++         8  8  7  8  8  7  7  7 16 15  4  4  5  4  4  4  4
++         5  4  4  4  5  4  4  4  4  4  4  4  5  4  4  5  4
++         4  4  4  4  4  3  4  4  4  4  4  4  4  3  4  4  4
++         4  3  4  4  4  4  4  4  4  4  4  4  4  3  4  4  8
++         8  7  6  6  6  6 13  6  6  6 13  6  6  7  6  5  6
++         6  7  7  6  7 13  6  0  0  0  0  0  0  0  0  0  0
%c M  cc GPS ccc cccc cccc cccc cccc ccccc ccccc ccccc ccccc
%c cc cc ccc ccc cccc cccc cccc cccc ccccc ccccc ccccc ccccc
%f  0.0000000  0.000000000  0.00000000000  0.000000000000000
%f  0.0000000  0.000000000  0.00000000000  0.000000000000000
%i    0    0    0    0      0      0      0      0         0
%i    0    0    0    0      0      0      0      0         0
/* INFORMATION & ANALYSIS CENTER (IAC)            RAPID DATA
/* S/V CLOCKS ARE ALIGNED TO GNSS TIME                      
/* G:C1WC2W R:C1PC2P E:C1XC5X C:C2IC6I J:C1CC2S             
/* PCV:IGS14_2196 OL/AL:FES2004  NONE     YN ORB:CoN CLK:CoN
*  2022 05 18 21 15  0.00000000
PC01 -34369.072423  24446.317357   -571.776488    208.018397
PC02   4455.662288  41941.916372   -368.002648     12.603364
PC03 -14737.556937  39512.533695  -1173.251146   -550.114081
PC04 -39629.924762  14422.161215   -440.653008    150.122247
PC05  22020.192547  36020.062012   -144.913061    240.081069
PC06 -16250.459260  26891.777852  28045.168725     11.278074
PC07  -9239.883785  40626.135028   7039.643688   -183.764818
PC08   -458.276959  24771.809275 -34082.815618    319.625449
PC09  -7201.139412  26245.722395  32440.806814   -800.003138
PC10  -3350.153870  42302.533438    133.576168    131.580761
PC11  26524.032437  -8231.160837  -2522.729897    360.430455
PC12  20803.385621   4604.146004 -17987.193770   -614.048992
PC13   6589.317583  28735.620947 -29898.339022    -28.998780
PC14  15904.197764  -8803.474308  21181.855765    478.015684
PC16 -19500.025602  26419.230943  26482.876103    132.574964
PC19 -13357.818861  18757.944377 -15748.816613    868.649465
PC20 -15854.679542   -277.985622 -22944.737958   -920.480879
PC21   8924.861331  20464.825881  16781.635360   -315.605823
PC22  -3093.178293  27739.366731    848.635472   -969.394059
PC23  -2253.843084 -19657.616177 -19672.445138   -930.253370
PC24  24134.544991   9073.616036 -10654.457457   -966.180510
PC25  14731.588321  -8739.107406 -22033.372439   -734.730162
PC26  19559.584955  19163.641917   5274.462921    735.974773
PC27 -13380.775019 -10986.700403  21857.485400    725.270515
PC28   6354.658426 -17792.031948  20534.997858     68.304679
PC29 -22500.103340  15049.946211  -6786.097742    556.463028
PC30 -25397.075541   2651.194603  11217.606029    498.682109
PC32  -9047.829733 -20410.816289 -16710.978587   -963.621188
PC33  13328.568782 -18703.324466  15847.465344   -965.996593
PC34  25718.966913  -3357.321098 -10346.025026   -400.573416
PC35  -6761.327549  18200.488272 -20044.194203    280.139344
PC36 -15368.811324   7950.838311  21918.626321   -964.508300
PC37 -18401.315604 -20003.921809  -6351.147052   -910.845615
PC38  -8956.902788  22117.743206 -34723.823716    233.083750
PC39 -24270.340782  26806.611581  21574.946189     34.981475
PC40 -14699.942981  38149.236060  10661.670119    270.158738
PC41   3357.974434 -27698.210646   -294.021503   -966.151824
PC42  15803.376888   1553.440039  22996.011210   -971.292194
PC43  22961.957901 -14669.424763   6073.476129   -923.333530
PC44  13668.591741  10748.829337 -21848.968121    663.914656
PC45   2598.325876  19671.699141  19617.677915    760.495693
PC46 -23966.241381  -7891.419655  11961.909806   -331.702928
PC59 -32336.477019  27079.143748    180.700765     -0.893134
PC60   7293.776636  41521.133919  -1494.267284     -0.898477
PE02   8807.949671  27992.534560   3810.882461    300.020446
PE03      4.925611  22493.904666  19252.565356   -559.636694
PE04 -15699.929795  -7330.051453 -23986.289169  -1030.826714
PE05 -16000.931442  24713.265555   3093.726755   -180.389218
PE07  22474.335672 -12513.614525  14648.073968   -669.820429
PE08  15779.243559   6947.080760  24067.133699   -531.382504
PE09 -22363.786435  12774.142321 -14593.684225   -522.873616
PE10 -29347.620710  -3812.329551    567.266049   -513.876028
PE11 -27839.869235   2898.834473  -9614.172307   3629.637512
PE12 -26064.265566  -9750.815198  10047.016885   4607.151310
PE13  28110.156507  -2468.905249   8956.335413    428.761418
PE14 -22736.648474   6556.849086  12769.291131  -1833.722164
PE15  26027.178967   9735.887379 -10211.845599    744.852081
PE18  20382.361441   5556.476988 -21330.543270  -1433.299895
PE19   2312.492398 -23531.465773 -17794.892905  -4889.449371
PE21   4917.724850 -22016.980386 -19166.577802   -734.962462
PE24 -17113.574068   1655.797637  24083.738696   -622.241126
PE25  -5123.050314  21821.923863  19334.811075   -574.412966
PE26  12726.594611 -13609.854760  22997.934216  -1160.069180
PE27  16628.444824  -3053.253596 -24294.590844   -301.826043
PE30  18201.573187  18433.188137 -14319.064562   -521.157107
PE31 -18461.088201 -17545.797366  15091.217083   -496.839139
PE33  -8592.370661 -16142.589769  23270.273863   -456.507774
PE34   8849.576394  16117.554669 -23206.820953   -517.721466
PE36 -13658.345537  13142.948725 -22734.465521   -375.542172
PG01  19019.183184  13827.003478 -12989.242730    360.090437
PG02   3010.391581 -15115.741607  22287.166573   -653.219070
PG03  12803.668093  21315.109483   9389.816682   -248.954665
PG04   9702.875347  11765.843078  21751.941822   -165.981118
PG05  -4859.215141 -25514.189313   4996.003578    -82.328257
PG06  18483.244022  -7377.118105  17692.710127    308.529055
PG07  26180.049505   5609.660449  -1369.759510    322.147829
PG08   1836.374348  17933.257203 -19425.294432    -68.549455
PG09  17718.032247   1399.226446  19680.281054   -335.708798
PG10 -13485.467325   6573.513719 -21750.661305   -419.632509
PG11   4037.438018 -14619.426097  21798.836166    -23.361520
PG12  -9121.244487 -24312.055531   5598.128777   -217.510671
PG13   8450.150124 -20068.478979 -15239.597489    313.975105
PG14  14541.358243  -5171.769544 -21614.330951   -108.852153
PG15  -5062.308473 -17628.881628 -19523.776154    -60.206755
PG16  -1517.521997  24594.640055   9009.662158   -501.999069
PG17  21735.545754 -13046.029686  -7575.361355    614.247906
PG18 -25908.552405  -5955.084873  -1415.518415    166.549376
PG19  20633.119281 -16529.253934   -891.825013    159.067758
PG20   1571.270983 -22057.848511  14879.170196    514.698873
PG21  10721.177730  15021.205067 -18707.611479    161.132004
PG22 -18574.665063  18726.723043   2535.192421    261.295419
PG23 -16348.069664  -5443.034701 -20251.213748    -22.731491
PG24 -16048.931705 -14567.327913 -15918.508898    238.653026
PG25 -15963.920172 -13434.819012  16303.601112    326.385578
PG26  -7570.671339  17947.790966  17832.825876    206.524055
PG27  -9820.965053  21667.557023 -11599.876716    204.899082
PG28  10470.396917 -14782.472090 -18994.054786    355.549413
PG29 -17112.843256  -2747.316497  20092.568460   -515.034296
PG30  24389.717558  -1615.354991 -10615.189175   -528.384698
PG31 -16872.560075   8970.234458  18507.260032   -178.166908
PG32 -20549.236535  15447.771117  -6116.302744   -130.173463
PJ02 -24900.535918  24543.848377  28634.761763     -0.173864
PJ03 -34423.327696  19490.192882  -9869.471527     -2.240831
PR01  -2808.162156 -18839.384010 -16950.670916      8.856571
PR02 -11283.067829   -177.190818 -22822.922480    518.778358
PR03 -12626.865774  17064.854354 -14053.008464     56.876672
PR04  -6972.343368  24419.681923   2392.131388    142.160967
PR05   2472.867843  18358.430084  17542.858638     93.100156
PR06  11750.035274  -1326.603317  22600.061421    -49.147007
PR07  12584.877741 -17628.363555  13553.868954     35.255031
PR08   6887.550474 -24453.143484  -2368.629764    -65.195452
PR09  18907.313523  10372.448046 -13667.230653     55.757295
PR10  11557.070292  -3352.300422 -22489.369132    -82.513387
PR11  -2962.563350 -16553.293501 -19163.803157     38.671883
PR12 -15726.889549 -19796.596868  -3421.833532     18.515847
PR13 -18904.742751 -11476.299953  12695.491711    -22.473893
PR14 -10660.028347   4622.794646  22717.849518     25.653045
PR15   3390.127014  17097.431363  18645.032803     96.031351
PR17 -22621.342031   8441.633980  -8278.833488    527.216925
PR18  -9356.074356  11347.849409 -20816.785804    117.303154
PR19   7343.626955   8986.916729 -22721.043081   -189.475989
PR20  23489.269525    579.890188  -9984.275935    -70.817943
PR21  21877.111963  -8785.806458   9706.122410   -302.316016
PR22   8715.538466 -11258.270750  21171.382901   -183.986507
PR23 -13266.006003  -6866.804704  20660.135083    -41.151744
PR24 -23771.120619    144.073025   9274.642459     94.386000
EOF
